{"type": "FeatureCollection", "features": [{"type": "Feature", "properties": {"norad_id": 26766, "name": "INTELSAT 10 (IS-10)", "group": "intelsat", "lat": -6.797670489482118, "lon": -67.15303526227963, "alt_km": 36092.01241120266, "timestamp": "2025-12-08T03:50:06.672171+00:00", "meta": {"OBJECT_NAME": "INTELSAT 10 (IS-10)", "OBJECT_ID": "2001-019A", "EPOCH": "2025-12-06T11:29:51.700704", "MEAN_MOTION": 0.99078798, "ECCENTRICITY": 0.00078511, "INCLINATION": 8.6144, "RA_OF_ASC_NODE": 61.2183, "ARG_OF_PERICENTER": 220.2225, "MEAN_ANOMALY": 132.1998, "EPHEMERIS_TYPE": 0, "CLASSIFICATION_TYPE": "U", "NORAD_CAT_ID": 26766, "ELEMENT_SET_NO": 999, "REV_AT_EPOCH": 4366, "BSTAR": 0, "MEAN_MOTION_DOT": -2.37e-06, "MEAN_MOTION_DDOT": 0}, "tle": {"line1": "1 26766U 01019A   25340.47907061 -.00000237  00000+0  00000+0 0  9997", "line2": "2 26766   8.6144  61.2183 0007851 220.2225 132.1998  0.99078798 43668"}}, "geometry": {"type": "Point", "coordinates": [-67.15303526227963, -6.797670489482118]}}, {"type": "Feature", "properties": {"norad_id": 26900, "name": "INTELSAT 902 (IS-902)", "group": "intelsat", "lat": 1.0378600880391455, "lon": 84.46407034659508, "alt_km": 35804.690722095955, "timestamp": "2025-12-08T03:50:06.672195+00:00", "meta": {"OBJECT_NAME": "INTELSAT 902 (IS-902)", "OBJECT_ID": "2001-039A", "EPOCH": "2025-12-01T16:59:59.311968", "MEAN_MOTION": 1.00270327, "ECCENTRICITY": 0.00043097, "INCLINATION": 5.6187, "RA_OF_ASC_NODE": 74.2002, "ARG_OF_PERICENTER": 175.119, "MEAN_ANOMALY": 26.3816, "EPHEMERIS_TYPE": 0, "CLASSIFICATION_TYPE": "U", "NORAD_CAT_ID": 26900, "ELEMENT_SET_NO": 999, "REV_AT_EPOCH": 8871, "BSTAR": 0, "MEAN_MOTION_DOT": -2.63e-06, "MEAN_MOTION_DDOT": 0}, "tle": {"line1": "1 26900U 01039A   25335.70832537 -.00000263  00000+0  00000+0 0  9993", "line2": "2 26900   5.6187  74.2002 0004309 175.1190  26.3816  1.00270327 88713"}}, "geometry": {"type": "Point", "coordinates": [84.46407034659508, 1.0378600880391455]}}, {"type": "Feature", "properties": {"norad_id": 27380, "name": "INTELSAT 904 (IS-904)", "group": "intelsat", "lat": 3.4001652496066215, "lon": 103.001956588909, "alt_km": 35794.04249276488, "timestamp": "2025-12-08T03:50:06.672212+00:00", "meta": {"OBJECT_NAME": "INTELSAT 904 (IS-904)", "OBJECT_ID": "2002-007A", "EPOCH": "2025-12-07T03:12:44.180352", "MEAN_MOTION": 1.00268623, "ECCENTRICITY": 0.00017561, "INCLINATION": 6.4406, "RA_OF_ASC_NODE": 71.4955, "ARG_OF_PERICENTER": 212.7991, "MEAN_ANOMALY": 168.5269, "EPHEMERIS_TYPE": 0, "CLASSIFICATION_TYPE": "U", "NORAD_CAT_ID": 27380, "ELEMENT_SET_NO": 999, "REV_AT_EPOCH": 4984, "BSTAR": 0, "MEAN_MOTION_DOT": -2.24e-06, "MEAN_MOTION_DDOT": 0}, "tle": {"line1": "1 27380U 02007A   25341.13384468 -.00000224  00000+0  00000+0 0  9998", "line2": "2 27380   6.4406  71.4955 0001756 212.7991 168.5269  1.00268623 49843"}}, "geometry": {"type": "Point", "coordinates": [103.001956588909, 3.4001652496066215]}}, {"type": "Feature", "properties": {"norad_id": 27426, "name": "DIRECTV 5 (TEMPO 1)", "group": "intelsat", "lat": -3.4955562350287854, "lon": 24.702672888324237, "alt_km": 35792.338134910664, "timestamp": "2025-12-08T03:50:06.672225+00:00", "meta": {"OBJECT_NAME": "DIRECTV 5 (TEMPO 1)", "OBJECT_ID": "2002-023A", "EPOCH": "2025-12-07T07:14:23.512128", "MEAN_MOTION": 1.00271641, "ECCENTRICITY": 0.00039232, "INCLINATION": 4.3879, "RA_OF_ASC_NODE": 77.7152, "ARG_OF_PERICENTER": 196.6889, "MEAN_ANOMALY": 160.4004, "EPHEMERIS_TYPE": 0, "CLASSIFICATION_TYPE": "U", "NORAD_CAT_ID": 27426, "ELEMENT_SET_NO": 999, "REV_AT_EPOCH": 8619, "BSTAR": 0, "MEAN_MOTION_DOT": -5.4e-07, "MEAN_MOTION_DDOT": 0}, "tle": {"line1": "1 27426U 02023A   25341.30166102 -.00000054  00000+0  00000+0 0  9990", "line2": "2 27426   4.3879  77.7152 0003923 196.6889 160.4004  1.00271641 86198"}}, "geometry": {"type": "Point", "coordinates": [24.702672888324237, -3.4955562350287854]}}, {"type": "Feature", "properties": {"norad_id": 27438, "name": "INTELSAT 905 (IS-905)", "group": "intelsat", "lat": -6.0423386949850535, "lon": -2.310700840630534, "alt_km": 35787.399574924006, "timestamp": "2025-12-08T03:50:06.672239+00:00", "meta": {"OBJECT_NAME": "INTELSAT 905 (IS-905)", "OBJECT_ID": "2002-027A", "EPOCH": "2025-12-03T09:40:44.149728", "MEAN_MOTION": 1.00273288, "ECCENTRICITY": 0.00031296, "INCLINATION": 6.2606, "RA_OF_ASC_NODE": 72.1621, "ARG_OF_PERICENTER": 189.1417, "MEAN_ANOMALY": 179.1858, "EPHEMERIS_TYPE": 0, "CLASSIFICATION_TYPE": "U", "NORAD_CAT_ID": 27438, "ELEMENT_SET_NO": 999, "REV_AT_EPOCH": 4940, "BSTAR": 0, "MEAN_MOTION_DOT": 1.09e-06, "MEAN_MOTION_DDOT": 0}, "tle": {"line1": "1 27438U 02027A   25337.40328877  .00000109  00000+0  00000+0 0  9992", "line2": "2 27438   6.2606  72.1621 0003129 189.1417 179.1858  1.00273288 49408"}}, "geometry": {"type": "Point", "coordinates": [-2.310700840630534, -6.0423386949850535]}}, {"type": "Feature", "properties": {"norad_id": 27445, "name": "GALAXY 3C (G-3C)", "group": "intelsat", "lat": -2.102634148878813, "lon": 39.872525497015125, "alt_km": 35790.60192056727, "timestamp": "2025-12-08T03:50:06.672252+00:00", "meta": {"OBJECT_NAME": "GALAXY 3C (G-3C)", "OBJECT_ID": "2002-030A", "EPOCH": "2025-12-07T07:23:09.602592", "MEAN_MOTION": 1.0027096, "ECCENTRICITY": 0.0001191, "INCLINATION": 3.2501, "RA_OF_ASC_NODE": 80.5608, "ARG_OF_PERICENTER": 101.8477, "MEAN_ANOMALY": 269.8537, "EPHEMERIS_TYPE": 0, "CLASSIFICATION_TYPE": "U", "NORAD_CAT_ID": 27445, "ELEMENT_SET_NO": 999, "REV_AT_EPOCH": 4457, "BSTAR": 0, "MEAN_MOTION_DOT": -1.49e-06, "MEAN_MOTION_DDOT": 0}, "tle": {"line1": "1 27445U 02030A   25341.30775003 -.00000149  00000+0  00000+0 0  9990", "line2": "2 27445   3.2501  80.5608 0001191 101.8477 269.8537  1.00270960 44577"}}, "geometry": {"type": "Point", "coordinates": [39.872525497015125, -2.102634148878813]}}, {"type": "Feature", "properties": {"norad_id": 27513, "name": "INTELSAT 906 (IS-906)", "group": "intelsat", "lat": 4.422325093605933, "lon": -161.11114563044302, "alt_km": 35774.9728726606, "timestamp": "2025-12-08T03:50:06.672265+00:00", "meta": {"OBJECT_NAME": "INTELSAT 906 (IS-906)", "OBJECT_ID": "2002-041A", "EPOCH": "2025-12-07T05:22:47.405856", "MEAN_MOTION": 1.00270533, "ECCENTRICITY": 0.00060553, "INCLINATION": 5.3148, "RA_OF_ASC_NODE": 75.297, "ARG_OF_PERICENTER": 188.5449, "MEAN_ANOMALY": 317.2449, "EPHEMERIS_TYPE": 0, "CLASSIFICATION_TYPE": "U", "NORAD_CAT_ID": 27513, "ELEMENT_SET_NO": 999, "REV_AT_EPOCH": 8510, "BSTAR": 0, "MEAN_MOTION_DOT": 1.5e-07, "MEAN_MOTION_DDOT": 0}, "tle": {"line1": "1 27513U 02041A   25341.22415979  .00000015  00000+0  00000+0 0  9993", "line2": "2 27513   5.3148  75.2970 0006055 188.5449 317.2449  1.00270533 85101"}}, "geometry": {"type": "Point", "coordinates": [-161.11114563044302, 4.422325093605933]}}, {"type": "Feature", "properties": {"norad_id": 27954, "name": "GALAXY 13 (HORIZONS-1)", "group": "intelsat", "lat": -0.9029806097885338, "lon": -15.269095503541042, "alt_km": 35788.34231874342, "timestamp": "2025-12-08T03:50:06.672277+00:00", "meta": {"OBJECT_NAME": "GALAXY 13 (HORIZONS-1)", "OBJECT_ID": "2003-044A", "EPOCH": "2025-12-07T06:52:17.546880", "MEAN_MOTION": 1.00270319, "ECCENTRICITY": 0.00019683, "INCLINATION": 0.9214, "RA_OF_ASC_NODE": 86.5406, "ARG_OF_PERICENTER": 155.2736, "MEAN_ANOMALY": 147.5884, "EPHEMERIS_TYPE": 0, "CLASSIFICATION_TYPE": "U", "NORAD_CAT_ID": 27954, "ELEMENT_SET_NO": 999, "REV_AT_EPOCH": 4464, "BSTAR": 0, "MEAN_MOTION_DOT": 1.37e-06, "MEAN_MOTION_DDOT": 0}, "tle": {"line1": "1 27954U 03044A   25341.28631420  .00000137  00000+0  00000+0 0  9998", "line2": "2 27954   0.9214  86.5406 0001968 155.2736 147.5884  1.00270319 44645"}}, "geometry": {"type": "Point", "coordinates": [-15.269095503541042, -0.9029806097885338]}}, {"type": "Feature", "properties": {"norad_id": 28358, "name": "INTELSAT 10-02", "group": "intelsat", "lat": 0.03597650291897002, "lon": 133.7003681893138, "alt_km": 35790.65403408908, "timestamp": "2025-12-08T03:50:06.672290+00:00", "meta": {"OBJECT_NAME": "INTELSAT 10-02", "OBJECT_ID": "2004-022A", "EPOCH": "2025-12-07T06:46:54.348672", "MEAN_MOTION": 1.00270043, "ECCENTRICITY": 0.00011192, "INCLINATION": 0.0344, "RA_OF_ASC_NODE": 71.5199, "ARG_OF_PERICENTER": 213.0136, "MEAN_ANOMALY": 252.518, "EPHEMERIS_TYPE": 0, "CLASSIFICATION_TYPE": "U", "NORAD_CAT_ID": 28358, "ELEMENT_SET_NO": 999, "REV_AT_EPOCH": 7863, "BSTAR": 0, "MEAN_MOTION_DOT": -7e-08, "MEAN_MOTION_DDOT": 0}, "tle": {"line1": "1 28358U 04022A   25341.28257348 -.00000007  00000+0  00000+0 0  9994", "line2": "2 28358   0.0344  71.5199 0001119 213.0136 252.5180  1.00270043 78633"}}, "geometry": {"type": "Point", "coordinates": [133.7003681893138, 0.03597650291897002]}}, {"type": "Feature", "properties": {"norad_id": 28626, "name": "XM-3 (RHYTHM)", "group": "intelsat", "lat": -0.04968640655855989, "lon": -89.2607497491294, "alt_km": 36157.92696473361, "timestamp": "2025-12-08T03:50:06.672302+00:00", "meta": {"OBJECT_NAME": "XM-3 (RHYTHM)", "OBJECT_ID": "2005-008A", "EPOCH": "2025-12-07T07:27:05.499648", "MEAN_MOTION": 0.98954379, "ECCENTRICITY": 0.00012317, "INCLINATION": 0.1603, "RA_OF_ASC_NODE": 81.0699, "ARG_OF_PERICENTER": 261.0026, "MEAN_ANOMALY": 346.1224, "EPHEMERIS_TYPE": 0, "CLASSIFICATION_TYPE": "U", "NORAD_CAT_ID": 28626, "ELEMENT_SET_NO": 999, "REV_AT_EPOCH": 4069, "BSTAR": 0, "MEAN_MOTION_DOT": -2.66e-06, "MEAN_MOTION_DDOT": 0}, "tle": {"line1": "1 28626U 05008A   25341.31048032 -.00000266  00000+0  00000+0 0  9996", "line2": "2 28626   0.1603  81.0699 0001231 261.0026 346.1224  0.98954379 40698"}}, "geometry": {"type": "Point", "coordinates": [-89.2607497491294, -0.04968640655855989]}}]}